NORAD_CAT_ID,OBJECT_NAME,OBJECT_TYPE,EPOCH,MEAN_MOTION,ECCENTRICITY,INCLINATION,RA_OF_ASC_NODE,ARG_OF_PERICENTER,MEAN_ANOMALY,BSTAR,MEAN_MOTION_DOT,MEAN_MOTION_DDOT,TLE_LINE0,TLE_LINE1,TLE_LINE2,SEMIMAJOR_AXIS,PERIOD,APOGEE,PERIGEE,DECAYED
55744.0,STARLINK-5601,PAYLOAD,2023-11-22 19:58:15,14.98315323,0.0003014,69.9991,197.1342,267.847,92.2343,0.00042144,4.937e-05,0.0,0 STARLINK-5601,1 55744U 23028D   23326.83211860  .00004937  00000-0  42144-3 0  9996,2 55744  69.9991 197.1342 0003014 267.8470  92.2343 14.98315323 40533,6950.238,96.108,574.198,570.008,0.0
55744.0,STARLINK-5601,PAYLOAD,2023-11-22 21:34:22,14.98336764,0.0002654,69.9992,196.9671,262.7204,97.3653,6.0848e-05,6.33e-06,0.0,0 STARLINK-5601,1 55744U 23028D   23326.89887417  .00000633  00000-0  60848-4 0  9990,2 55744  69.9992 196.9671 0002654 262.7204  97.3653 14.98336764 40547,6950.172,96.107,573.882,570.192,0.0
55744.0,STARLINK-5601,PAYLOAD,2023-11-23 00:46:38,14.98337462,0.0002623,69.9992,196.6304,261.2064,98.8798,8.811e-05,9.59e-06,0.0,0 STARLINK-5601,1 55744U 23028D   23327.03239260  .00000959  00000-0  88110-4 0  9997,2 55744  69.9992 196.6304 0002623 261.2064  98.8798 14.98337462 40565,6950.17,96.107,573.858,570.212,0.0
55744.0,STARLINK-5601,PAYLOAD,2023-11-23 20:00:16,14.9832661,0.0002523,70.0002,194.6117,251.7894,108.2991,1.4668e-05,8.2e-07,0.0,0 STARLINK-5601,1 55744U 23028D   23327.83352117  .00000082  00000-0  14668-4 0  9996,2 55744  70.0002 194.6117 0002523 251.7894 108.2991 14.98326610 40681,6950.203,96.107,573.822,570.315,0.0
55744.0,STARLINK-5601,PAYLOAD,2023-11-23 21:36:24,14.98324966,0.0002634,69.9999,194.4442,254.0104,106.0765,-5.0071e-07,-9.9e-07,0.0,0 STARLINK-5601,1 55744U 23028D   23327.90028309 -.00000099  00000-0 -50071-6 0  9997,2 55744  69.9999 194.4442 0002634 254.0104 106.0765 14.98324966 40693,6950.208,96.107,573.904,570.243,0.0
55744.0,STARLINK-5601,PAYLOAD,2023-11-24 00:48:41,14.98319175,0.0002507,69.9994,194.1054,260.0251,100.0625,-7.1443e-05,-9.45e-06,0.0,0 STARLINK-5601,1 55744U 23028D   23328.03380925 -.00000945  00000-0 -71443-4 0  9991,2 55744  69.9994 194.1054 0002507 260.0251 100.0625 14.98319175 40711,6950.226,96.108,573.834,570.349,0.0
55744.0,STARLINK-5601,PAYLOAD,2023-11-24 20:02:17,14.98331605,0.0003307,69.9981,192.0844,277.8251,82.2533,2.1177e-05,1.6e-06,0.0,0 STARLINK-5601,1 55744U 23028D   23328.83492138  .00000160  00000-0  21177-4 0  9995,2 55744  69.9981 192.0844 0003307 277.8251  82.2533 14.98331605 40830,6950.188,96.107,574.351,569.755,0.0
55744.0,STARLINK-5601,PAYLOAD,2023-11-24 21:38:25,14.98333716,0.0003111,69.998,191.9155,274.4958,85.5846,4.8767e-05,4.89e-06,0.0,0 STARLINK-5601,1 55744U 23028D   23328.90167895  .00000489  00000-0  48767-4 0  9990,2 55744  69.9980 191.9155 0003111 274.4958  85.5846 14.98333716 40841,6950.181,96.107,574.209,569.884,0.0
55744.0,STARLINK-5601,PAYLOAD,2023-11-25 00:50:40,14.9833857,0.0002855,69.9984,191.5794,266.225,93.8583,9.8605e-05,1.084e-05,0.0,0 STARLINK-5601,1 55744U 23028D   23329.03519477  .00001084  00000-0  98605-4 0  9990,2 55744  69.9984 191.5794 0002855 266.2250  93.8583 14.98338570 40863,6950.166,96.106,574.016,570.047,0.0
55744.0,STARLINK-5601,PAYLOAD,2023-11-25 21:40:25,14.98332824,0.000258,69.9989,189.3905,262.8608,97.2258,0.00045712,5.366e-05,0.0,0 STARLINK-5601,1 55744U 23028D   23329.90307523  .00005366  00000-0  45712-3 0  9990,2 55744  69.9989 189.3905 0002580 262.8608  97.2258 14.98332824 40998,6950.184,96.107,573.842,570.256,0.0
55744.0,STARLINK-5601,PAYLOAD,2023-11-26 00:52:41,14.98345683,0.0002227,70.0003,189.0561,263.4454,96.6452,0.00045513,5.344e-05,0.0,0 STARLINK-5601,1 55744U 23028D   23330.03659385  .00005344  00000-0  45513-3 0  9997,2 55744  70.0003 189.0561 0002227 263.4454  96.6452 14.98345683 41017,6950.144,96.106,573.557,570.462,0.0
55744.0,STARLINK-5601,PAYLOAD,2023-11-26 20:06:18,14.98327207,0.0002894,69.9998,187.0355,269.1966,90.8862,-0.00013562,-1.711e-05,0.0,0 STARLINK-5601,1 55744U 23028D   23330.83771871 -.00001711  00000-0 -13562-3 0  9995,2 55744  69.9998 187.0355 0002894 269.1966  90.8862 14.98327207 41133,6950.202,96.107,574.078,570.055,0.0
55744.0,STARLINK-5601,PAYLOAD,2023-11-26 21:42:26,14.98328952,0.0002507,70.0007,186.8684,251.6219,108.4668,-0.0001267,-1.604e-05,0.0,0 STARLINK-5601,1 55744U 23028D   23330.90447701 -.00001604  00000-0 -12670-3 0  9995,2 55744  70.0007 186.8684 0002507 251.6219 108.4668 14.98328952 41146,6950.196,96.107,573.804,570.319,0.0
55744.0,STARLINK-5601,PAYLOAD,2023-11-27 13:43:47,14.98328565,0.0002553,70.0012,185.1858,260.7398,99.3472,-6.1273e-05,-8.24e-06,0.0,0 STARLINK-5601,1 55744U 23028D   23331.57207723 -.00000824  00000-0 -61273-4 0  9994,2 55744  70.0012 185.1858 0002553 260.7398  99.3472 14.98328565 41249,6950.197,96.107,573.837,570.288,0.0
55744.0,STARLINK-5601,PAYLOAD,2023-11-27 21:44:27,14.98341021,0.0002729,69.9999,184.3426,271.4386,88.646,-0.00029473,-3.609e-05,0.0,0 STARLINK-5601,1 55744U 23028D   23331.90587024 -.00003609  00000-0 -29473-3 0  9995,2 55744  69.9999 184.3426 0002729 271.4386  88.6460 14.98341021 41298,6950.159,96.106,573.921,570.127,0.0
55744.0,STARLINK-5601,PAYLOAD,2023-11-28 00:56:43,14.98339847,0.0002635,70.0001,184.0063,267.8241,92.2616,-0.00024959,-3.07e-05,0.0,0 STARLINK-5601,1 55744U 23028D   23332.03939043 -.00003070  00000-0 -24959-3 0  9998,2 55744  70.0001 184.0063 0002635 267.8241  92.2616 14.98339847 41314,6950.162,96.106,573.859,570.196,0.0
55744.0,STARLINK-5601,PAYLOAD,2023-11-28 13:45:48,14.9833221,0.0002801,69.9995,182.6587,262.082,98.0021,-0.00011418,-1.455e-05,0.0,0 STARLINK-5601,1 55744U 23028D   23332.57347694 -.00001455  00000-0 -11418-3 0  9993,2 55744  69.9995 182.6587 0002801 262.0820  98.0021 14.98332210 41392,6950.186,96.107,573.998,570.104,0.0
55744.0,STARLINK-5601,PAYLOAD,2023-11-28 20:10:21,14.98325183,0.0002914,69.9991,181.9857,263.5428,96.5399,0.00015866,1.8e-05,0.0,0 STARLINK-5601,1 55744U 23028D   23332.84052103  .00001800  00000-0  15866-3 0  9994,2 55744  69.9991 181.9857 0002914 263.5428  96.5399 14.98325183 41432,6950.208,96.107,574.098,570.047,0.0
55744.0,STARLINK-5601,PAYLOAD,2023-11-28 23:22:37,14.98323566,0.0002748,69.9993,181.6497,255.9306,104.1548,0.00011529,1.283e-05,0.0,0 STARLINK-5601,1 55744U 23028D   23332.97404277  .00001283  00000-0  11529-3 0  9998,2 55744  69.9993 181.6497 0002748 255.9306 104.1548 14.98323566 41453,6950.213,96.107,573.988,570.168,0.0
55744.0,STARLINK-5601,PAYLOAD,2023-11-29 20:12:21,14.98336186,0.0003004,69.9989,179.4609,264.8645,95.2171,0.00016409,1.866e-05,0.0,0 STARLINK-5601,1 55744U 23028D   23333.84191569  .00001866  00000-0  16409-3 0  9991,2 55744  69.9989 179.4609 0003004 264.8645  95.2171 14.98336186 41587,6950.174,96.107,574.127,569.951,0.0
55744.0,STARLINK-5601,PAYLOAD,2023-11-30 20:14:22,14.98332858,0.0002785,69.9995,176.9372,258.0847,102.0,0.00019344,2.216e-05,0.0,0 STARLINK-5601,1 55744U 23028D   23334.84331803  .00002216  00000-0  19344-3 0  9990,2 55744  69.9995 176.9372 0002785 258.0847 102.0000 14.98332858 41734,6950.184,96.107,573.985,570.113,0.0
55744.0,STARLINK-5601,PAYLOAD,2023-12-01 21:52:29,14.98360026,0.0002566,69.9996,174.2447,251.0476,109.0406,0.0002782,3.23e-05,0.0,0 STARLINK-5601,1 55744U 23028D   23335.91145423  .00003230  00000-0  27820-3 0  9995,2 55744  69.9996 174.2447 0002566 251.0476 109.0406 14.98360026 41899,6950.1,96.105,573.748,570.182,0.0
55744.0,STARLINK-5601,PAYLOAD,2023-12-01 23:28:37,14.98365587,0.0002215,70.0001,174.076,262.897,97.1937,0.00042184,4.948e-05,0.0,0 STARLINK-5601,1 55744U 23028D   23335.97820849  .00004948  00000-0  42184-3 0  9990,2 55744  70.0001 174.0760 0002215 262.8970  97.1937 14.98365587 41900,6950.083,96.105,573.487,570.408,0.0
55744.0,STARLINK-5601,PAYLOAD,2023-12-02 13:53:51,14.98334125,0.0002754,69.9995,172.5599,256.8459,103.2393,0.00014397,1.625e-05,0.0,0 STARLINK-5601,1 55744U 23028D   23336.57906667  .00001625  00000-0  14397-3 0  9994,2 55744  69.9995 172.5599 0002754 256.8459 103.2393 14.98334125 41993,6950.18,96.107,573.959,570.131,0.0
55744.0,STARLINK-5601,PAYLOAD,2023-12-02 20:18:24,14.98306408,0.0002673,69.9997,171.8868,262.0414,98.0442,-0.00050017,-6.052e-05,0.0,0 STARLINK-5601,1 55744U 23028D   23336.84612138 -.00006052  00000-0 -50017-3 0  9991,2 55744  69.9997 171.8868 0002673 262.0414  98.0442 14.98306408 42031,6950.266,96.109,573.989,570.273,0.0
55744.0,STARLINK-5601,PAYLOAD,2023-12-02 21:54:33,14.98298002,0.0002623,69.9998,171.7188,253.847,106.24,-0.00064216,-7.74e-05,0.0,0 STARLINK-5601,1 55744U 23028D   23336.91288626 -.00007740  00000-0 -64216-3 0  9991,2 55744  69.9998 171.7188 0002623 253.8470 106.2400 14.98298002 42048,6950.292,96.109,573.98,570.334,0.0
55744.0,STARLINK-5601,PAYLOAD,2023-12-03 12:19:46,14.98308486,0.0002921,70.0006,170.2051,257.7437,102.3395,-0.000377,-4.586e-05,0.0,0 STARLINK-5601,1 55744U 23028D   23337.51372816 -.00004586  00000-0 -37700-3 0  9996,2 55744  70.0006 170.2051 0002921 257.7437 102.3395 14.98308486 42139,6950.259,96.108,574.155,570.094,0.0
55744.0,STARLINK-5601,PAYLOAD,2023-12-03 13:55:53,14.98329279,0.0003322,69.9956,170.0348,273.0993,86.9786,-0.0011079,-0.00013287,0.0,0 STARLINK-5601,1 55744U 23028D   23337.58047933 -.00013287  00000-0 -11079-2 0  9990,2 55744  69.9956 170.0348 0003322 273.0993  86.9786 14.98329279 42146,6950.195,96.107,574.369,569.751,0.0
55744.0,STARLINK-5601,PAYLOAD,2023-12-03 20:20:26,14.98317246,0.0002491,70.0005,169.363,253.5377,106.5508,-0.00034256,-4.176e-05,0.0,0 STARLINK-5601,1 55744U 23028D   23337.84752737 -.00004176  00000-0 -34256-3 0  9994,2 55744  70.0005 169.3630 0002491 253.5377 106.5508 14.98317246 42180,6950.232,96.108,573.829,570.366,0.0
55744.0,STARLINK-5601,PAYLOAD,2023-12-04 04:21:06,14.98321495,0.0002474,70.0,168.5206,254.8125,105.276,-7.6249e-05,-1.002e-05,0.0,0 STARLINK-5601,1 55744U 23028D   23338.18132984 -.00001002  00000-0 -76249-4 0  9992,2 55744  70.0000 168.5206 0002474 254.8125 105.2760 14.98321495 42234,6950.219,96.108,573.804,570.365,0.0
